{
    "links": {
        "self": "http://www.neowsapp.com/rest/v1/neo/3163751?api_key=iIulBulltgU6a56xZRHN4H3l9WmuAYTsLGpBGhQ2"
    },
    "id": "3163751",
    "neo_reference_id": "3163751",
    "name": "(2003 UE8)",
    "designation": "2003 UE8",
    "nasa_jpl_url": "http://ssd.jpl.nasa.gov/sbdb.cgi?sstr=3163751",
    "absolute_magnitude_h": 24.9,
    "estimated_diameter": {
        "kilometers": {
            "estimated_diameter_min": 0.0278326768,
            "estimated_diameter_max": 0.0622357573
        },
        "meters": {
            "estimated_diameter_min": 27.8326768072,
            "estimated_diameter_max": 62.2357573367
        },
        "miles": {
            "estimated_diameter_min": 0.0172944182,
            "estimated_diameter_max": 0.0386714948
        },
        "feet": {
            "estimated_diameter_min": 91.3145593761,
            "estimated_diameter_max": 204.1855621004
        }
    },
    "is_potentially_hazardous_asteroid": false,
    "close_approach_data": [
        {
            "close_approach_date": "1949-12-06",
            "close_approach_date_full": "1949-Dec-06 07:21",
            "epoch_date_close_approach": -633371940000,
            "relative_velocity": {
                "kilometers_per_second": "18.4194250428",
                "kilometers_per_hour": "66309.9301539565",
                "miles_per_hour": "41202.4118781626"
            },
            "miss_distance": {
                "astronomical": "0.4096160098",
                "lunar": "159.3406278122",
                "kilometers": "61277682.583979126",
                "miles": "38076186.3414628988"
            },
            "orbiting_body": "Earth"
        },
        {
            "close_approach_date": "2003-10-18",
            "close_approach_date_full": "2003-Oct-18 21:34",
            "epoch_date_close_approach": 1066512840000,
            "relative_velocity": {
                "kilometers_per_second": "6.9361554857",
                "kilometers_per_hour": "24970.1597484127",
                "miles_per_hour": "15515.4862058957"
            },
            "miss_distance": {
                "astronomical": "0.0325768268",
                "lunar": "12.6723856252",
                "kilometers": "4873423.900638916",
                "miles": "3028205.1921164008"
            },
            "orbiting_body": "Earth"
        },
        {
            "close_approach_date": "2011-12-10",
            "close_approach_date_full": "2011-Dec-10 15:51",
            "epoch_date_close_approach": 1323532260000,
            "relative_velocity": {
                "kilometers_per_second": "19.9173221012",
                "kilometers_per_hour": "71702.3595642563",
                "miles_per_hour": "44553.0578081347"
            },
            "miss_distance": {
                "astronomical": "0.4594274186",
                "lunar": "178.7172658354",
                "kilometers": "68729363.242158382",
                "miles": "42706445.9944623916"
            },
            "orbiting_body": "Earth"
        }
    ],
    "orbital_data": {
        "orbit_id": "9",
        "orbit_determination_date": "2017-04-06 09:13:38",
        "first_observation_date": "2003-10-18",
        "last_observation_date": "2003-11-30",
        "data_arc_in_days": 43,
        "observations_used": 35,
        "orbit_uncertainty": "7",
        "minimum_orbit_intersection": ".0288486",
        "jupiter_tisserand_invariant": "3.756",
        "epoch_osculation": "2459000.5",
        "eccentricity": ".472267041040928",
        "semi_major_axis": "1.936074052696602",
        "inclination": "6.547635064248271",
        "ascending_node_longitude": "33.62917632138623",
        "orbital_period": "983.9689038403442",
        "perihelion_distance": "1.02173008859346",
        "perihelion_argument": "353.4401072684255",
        "aphelion_distance": "2.850418016799745",
        "perihelion_time": "2458835.258989404840",
        "mean_anomaly": "60.45593878229894",
        "mean_motion": ".3658652205318193",
        "equinox": "J2000",
        "orbit_class": {
            "orbit_class_type": "AMO",
            "orbit_class_description": "Near-Earth asteroid orbits similar to that of 1221 Amor",
            "orbit_class_range": "1.017 AU < q (perihelion) < 1.3 AU"
        }
    },
    "is_sentry_object": false
}